"name","phone","email","country","region","currency"
"Sigourney Chandler","(387) 565-5075","tincidunt.tempus@aol.net","Chile","Central Java","$5,704"
"Harding Whitfield","1-972-848-4512","dictum.cursus@yahoo.org","Poland","Guerrero","$6,826"
"Jamalia Horton","1-469-453-2705","odio@icloud.com","Netherlands","South Gyeongsang","$6,540"
"Timon Salinas","1-542-293-7378","non.dapibus@aol.net","United Kingdom","Cesar","$7,092"
"Marsden Dominguez","1-134-355-1213","metus.vivamus.euismod@outlook.com","Indonesia","Zamboanga Peninsula","$5,047"
"Ashton Miller","(704) 643-3751","neque.sed@aol.com","Germany","Murcia","$5,479"
"Alfonso Hardin","(870) 741-8179","tempus@outlook.couk","France","Free State","$9,447"
"Lacota Walls","(567) 575-2211","nulla.facilisi@protonmail.net","South Africa","Utrecht","$8,899"
"Xena Zamora","(631) 887-4714","non.egestas@icloud.couk","Chile","Aisén","$6,100"
"Armand Robbins","(100) 891-0777","feugiat.non@yahoo.org","Ireland","Hawaii","$6,647"
"Quyn Parrish","(957) 179-5642","nec.ante.blandit@icloud.com","Indonesia","North Chungcheong","$8,588"
"Molly Drake","1-522-209-4590","duis.elementum.dui@protonmail.edu","Ukraine","Balıkesir","$5,449"
"Aurora Silva","1-285-657-8423","aliquet@aol.ca","Costa Rica","Maluku","$9,179"
"Cruz Fleming","(288) 348-8917","tellus.lorem@outlook.com","Indonesia","Vaupés","$9,186"
"Hanae Schultz","1-619-796-6718","adipiscing.elit@protonmail.net","United States","Araucanía","$6,955"
"Acton Carpenter","1-971-544-2152","sed.eu@icloud.net","New Zealand","Donetsk oblast","$8,583"
"Tyler Tyler","1-483-751-6865","tristique@hotmail.net","United States","Limón","$5,731"
"Levi Hensley","1-624-413-2631","tellus.sem.mollis@aol.org","Belgium","Baja California","$8,638"
"Valentine Henson","(980) 885-1835","metus.eu@google.com","Costa Rica","Marche","$6,529"
"Lilah Espinoza","1-743-613-5941","phasellus.vitae.mauris@yahoo.com","South Africa","Kahramanmaraş","$8,733"
"Calista Nolan","1-892-223-0836","tristique.pharetra@aol.com","Germany","Boyacá","$7,397"
"Rhiannon Logan","(448) 756-1744","nibh.aliquam.ornare@google.ca","South Africa","Mpumalanga","$5,490"
"Prescott Burke","1-557-347-4146","fringilla.est@aol.edu","New Zealand","Antalya","$9,188"
"Kaseem Levine","1-455-898-0978","tincidunt.dui.augue@google.com","Vietnam","Đắk Lắk","$9,980"
"Deirdre Golden","1-213-452-1381","cras.lorem@protonmail.edu","Costa Rica","Cusco","$7,374"
"Orson Velez","(848) 310-1546","metus.aenean.sed@outlook.couk","Austria","Rheinland-Pfalz","$8,708"
"Colin Giles","1-485-247-5384","lectus.justo@yahoo.couk","Costa Rica","Nordrhein-Westphalen","$9,406"
"Melodie Dejesus","(124) 621-7762","amet@outlook.couk","Nigeria","New South Wales","$8,639"
"Curran Ayers","(682) 217-2281","taciti.sociosqu@protonmail.ca","Vietnam","Catalunya","$7,726"
"Samson Robertson","1-453-946-0173","dui@icloud.couk","Ireland","Antwerpen","$7,754"
"Rachel Snyder","(995) 831-4631","quisque.porttitor@hotmail.com","Austria","Leinster","$6,740"
"Boris Whitehead","1-476-826-2003","in.dolor@outlook.net","Mexico","Piura","$6,485"
"Caryn Melton","(887) 480-2453","eget.mollis.lectus@aol.org","Austria","Wielkopolskie","$6,412"
"Asher Hamilton","1-244-729-5852","ante.iaculis.nec@google.org","Turkey","South Chungcheong","$7,408"
"Fulton Holland","1-978-106-1626","sollicitudin.commodo@icloud.org","United States","Manisa","$6,639"
"Breanna Mccall","(271) 349-8128","maecenas.ornare@hotmail.org","Poland","Upper Austria","$7,520"
"Bianca Green","1-265-282-4620","bibendum.donec@protonmail.org","Austria","Luxemburg","$7,325"
"Odette Castro","1-243-372-6199","facilisis@aol.couk","Canada","Nova Scotia","$5,328"
"Burke Hoover","1-543-846-5021","lacus.pede@google.net","Australia","Xīběi","$9,459"
"Judah Mays","(463) 852-3411","consectetuer.adipiscing.elit@protonmail.com","Ukraine","Sucre","$6,072"
"Malik Mills","(225) 245-6161","metus.vitae@outlook.org","Brazil","Mersin","$8,033"
"Randall George","(836) 144-0886","faucibus.lectus@protonmail.com","Philippines","Abruzzo","$6,839"
"Urielle Clements","(521) 983-6535","habitant.morbi.tristique@aol.net","Peru","Antofagasta","$8,798"
"Shoshana Mueller","(620) 443-6461","vitae@aol.net","Sweden","Rivers","$8,831"
"Claire Mullins","(904) 835-4564","libero.est@icloud.org","Canada","Ogun","$7,201"
"Slade Suarez","(476) 432-2720","scelerisque@outlook.com","Sweden","Nordland","$5,122"
"Omar Lynch","1-468-532-9924","aliquam.fringilla.cursus@icloud.net","China","Querétaro","$6,560"
"Jordan Rush","1-537-685-6562","odio.tristique@aol.org","United States","West Kalimantan","$9,974"
"Hayes Garrison","1-665-467-0259","ante.ipsum@google.couk","South Africa","Putumayo","$5,092"
"Miriam Conrad","1-851-840-7345","habitant.morbi@yahoo.ca","Italy","Northern Territory","$9,857"
"Kelsey Valdez","(265) 553-9797","ullamcorper.eu.euismod@icloud.net","Singapore","Xīběi","$8,812"
"Quamar Fulton","(551) 172-1173","aliquet@icloud.couk","India","Free State","$5,580"
"Elliott Schultz","1-326-671-8448","pede@aol.net","Ukraine","Podkarpackie","$9,025"
"Ruth Wiggins","(276) 415-3345","quisque.varius.nam@outlook.com","Canada","Connacht","$9,139"
"Josiah Valenzuela","(362) 827-7062","dis.parturient@yahoo.org","South Korea","Chhattisgarh","$7,611"
"Jared Valdez","(661) 551-4492","euismod.et@icloud.org","Mexico","Nagaland","$8,900"
"Ulysses Cox","1-854-250-6815","arcu.vestibulum.ante@outlook.couk","Nigeria","Overijssel","$5,876"
"Holmes Morrow","1-228-735-9224","vitae@outlook.org","Costa Rica","Bangsamoro","$9,573"
"Hayley Cochran","(353) 625-6650","ac.mattis.velit@outlook.couk","Austria","Balıkesir","$6,847"
"Silas Sharpe","1-851-185-6227","tellus.eu.augue@protonmail.net","Colombia","Luxemburg","$9,469"
"Katell Ayers","1-821-646-3766","porttitor.interdum.sed@outlook.org","Russian Federation","Daman and Diu","$7,914"
"Michael George","1-457-136-8126","felis.ullamcorper.viverra@outlook.ca","Peru","Thái Nguyên","$9,303"
"Stuart Kinney","(750) 688-5296","hendrerit@hotmail.org","India","Rheinland-Pfalz","$9,705"
"Nicole Vance","(467) 210-3682","ullamcorper.eu@protonmail.net","Indonesia","North-East Region","$7,126"
"Ivana Adams","1-977-113-2442","sit.amet@outlook.com","Peru","Gujarat","$5,014"
"Zephr Mckinney","(700) 713-8388","ac@google.com","Peru","Limón","$7,711"
"Quin Wiggins","(526) 325-5144","donec.fringilla.donec@google.com","Peru","Arequipa","$5,114"
"Marshall Gillespie","1-457-540-3368","imperdiet@hotmail.org","Costa Rica","Kherson oblast","$8,481"
"Sharon Ware","(363) 939-3227","orci.donec@outlook.edu","Chile","North Maluku","$8,839"
"Kylan Butler","1-590-590-1748","integer@protonmail.edu","China","Lima","$6,333"
"Venus Velasquez","(428) 323-6733","vulputate.lacus@yahoo.couk","Peru","Kon Tum","$7,649"
"Martena Hammond","1-814-308-3978","sollicitudin.adipiscing.ligula@yahoo.edu","Russian Federation","Namen","$8,521"
"Keiko Payne","(764) 721-4173","eros.non@protonmail.ca","South Africa","Carinthia","$9,462"
"Armando Maddox","(411) 900-2132","ligula.aliquam.erat@yahoo.ca","Australia","Trentino-Alto Adige","$5,323"
"Sierra Holt","1-959-566-5545","arcu.curabitur.ut@google.net","Colombia","Norte de Santander","$9,270"
"Meghan Hester","(753) 937-7424","lectus.pede.ultrices@aol.com","Austria","Rio de Janeiro","$7,410"
"Xantha Price","1-334-343-1764","duis.sit@google.org","China","Champagne-Ardenne","$8,216"
"Sebastian Brown","1-473-591-9547","felis@hotmail.com","Pakistan","Östergötlands län","$5,914"
"Stella Wilkinson","1-732-931-6012","ipsum.curabitur@yahoo.ca","China","Valle d'Aosta","$8,691"
"Judith Doyle","(340) 212-4400","nascetur@protonmail.org","Germany","Yukon","$8,924"
"Vivian Richards","1-272-700-9263","sed.malesuada.augue@yahoo.couk","Netherlands","Kharkiv oblast","$9,491"
"Myles Tucker","(328) 364-6771","nibh@protonmail.couk","Chile","Hatay","$8,717"
"David Wyatt","(348) 156-1757","cum.sociis@protonmail.edu","France","Connacht","$6,270"
"Gavin Gregory","(926) 142-0279","fermentum.risus@outlook.couk","Mexico","Daman and Diu","$7,071"
"Petra Reed","(717) 114-8649","nec.imperdiet@aol.couk","Colombia","West-Vlaanderen","$6,983"
"Patrick Alvarado","(931) 255-9230","sociosqu.ad@protonmail.org","Peru","Rheinland-Pfalz","$9,581"
"Audrey Williams","1-495-474-1317","condimentum.donec.at@icloud.couk","New Zealand","Connacht","$8,635"
"Anthony Lawson","1-138-552-1991","consectetuer.rhoncus.nullam@google.com","Austria","North-East Region","$9,401"
"Abbot Osborne","1-782-796-7988","posuere.cubilia@aol.couk","Vietnam","Kayseri","$6,335"
"Roth Farmer","1-624-251-7151","etiam.imperdiet.dictum@outlook.couk","Italy","Burgenland","$5,251"
"Andrew Cochran","(350) 407-7984","primis.in.faucibus@google.couk","New Zealand","South Jeolla","$7,519"
"Elliott Pollard","1-891-646-6636","dolor@protonmail.ca","Austria","Xīnán","$7,058"
"Daria Johnston","(655) 748-0772","duis.mi@aol.net","Indonesia","Northwest Territories","$9,193"
"Kenyon Mathews","(555) 511-1952","quis.urna@icloud.edu","Costa Rica","Euskadi","$5,169"
"Unity Mckay","1-368-351-4284","cursus.vestibulum@protonmail.com","Australia","Île-de-France","$7,841"
"Len Moreno","(739) 727-3346","eu.ligula@yahoo.edu","Norway","Chiapas","$7,762"
"Vance Fuller","(425) 240-4666","arcu.vestibulum.ante@protonmail.org","Chile","Hà Nam","$9,729"
"Beatrice Fry","(975) 313-7158","ridiculus@icloud.edu","Ireland","Uttar Pradesh","$9,927"
"Virginia Davenport","(381) 745-4497","maecenas.iaculis.aliquet@hotmail.couk","Turkey","Australian Capital Territory","$7,032"
"Lewis Ochoa","1-527-647-7029","et.netus@protonmail.net","Mexico","Manitoba","$9,755"
"Alan Chen","1-652-234-4234","et@yahoo.com","South Korea","FATA","$5,350"
"Brenden Martin","1-487-156-1623","donec.elementum@protonmail.couk","China","Lower Austria","$7,427"
"Ali Shepard","1-436-360-1288","turpis.aliquam@aol.edu","Brazil","South Island","$6,200"
"Garrison Simmons","(818) 259-4452","feugiat.non@aol.org","Costa Rica","O'Higgins","$6,446"
"Sacha Williams","1-771-652-5901","nibh.donec.est@protonmail.edu","Pakistan","Paraíba","$7,016"
"Guinevere Cherry","(477) 494-1453","id.nunc.interdum@yahoo.ca","United Kingdom","Sicilia","$6,995"
"Jana Swanson","1-721-348-4578","vitae.dolor.donec@hotmail.net","Poland","Abruzzo","$5,931"
"Naida Mercado","1-367-760-2130","cras.eu@hotmail.com","Ireland","Kyiv oblast","$5,869"
"Clio Ramirez","(122) 304-2296","neque.sed.sem@icloud.net","Peru","Limpopo","$5,665"
"Kiona Hood","(548) 742-2440","lectus@yahoo.org","Norway","Nord-Pas-de-Calais","$9,125"
"Dolan Holloway","(832) 127-2172","nisl.elementum@yahoo.ca","Netherlands","New South Wales","$5,235"
"Kelsie Summers","1-236-552-5988","malesuada.integer@yahoo.couk","France","Kocaeli","$7,260"
"Arden Shelton","(933) 765-3787","diam@hotmail.ca","India","La Libertad","$5,859"
"Dustin Randall","(795) 865-4513","egestas.urna@icloud.org","Germany","Munster","$7,158"
"Sigourney Nielsen","1-331-423-3449","pede.malesuada@icloud.ca","Sweden","Niger","$8,351"
"Avram Rosa","(972) 881-7065","fermentum@google.edu","Peru","Riau Islands","$6,955"
"Lawrence Casey","1-716-325-8842","neque@aol.org","France","Jönköpings län","$5,766"
"Dacey Lynn","(853) 851-4012","nec.metus@yahoo.org","Peru","Bayern","$8,561"
"Alexandra Villarreal","(430) 581-5641","nulla@yahoo.ca","France","North Region","$9,411"
"Haley Estrada","1-787-904-8975","dignissim.tempor@yahoo.ca","France","Veneto","$6,706"
"Sylvester Guy","(403) 353-0618","quam@hotmail.ca","United Kingdom","Ontario","$8,747"
"Armando Farley","(223) 776-6786","mi@outlook.net","Australia","Arica y Parinacota","$6,930"
"Giacomo Bentley","1-406-272-5441","accumsan.interdum@yahoo.couk","Netherlands","Lagos","$7,001"
"Rhea Wong","(578) 287-0856","ac.turpis@protonmail.ca","Poland","La Guajira","$6,293"
"Kylan Gallagher","1-708-213-1767","risus@icloud.com","Ireland","Adana","$5,522"
"Mariam Lloyd","(684) 565-7112","magnis@protonmail.org","India","Piura","$9,940"
"Raya Underwood","(838) 496-0546","mauris.magna.duis@yahoo.couk","Russian Federation","Northern Territory","$5,998"
"Lilah Bartlett","1-543-414-1125","ut.dolor.dapibus@aol.com","Singapore","Western Visayas","$7,588"
"Allegra Hoover","1-309-564-7448","et.malesuada.fames@protonmail.com","Sweden","Quảng Ngãi","$6,644"
"Adele Vaughn","1-406-798-1469","egestas.ligula@google.ca","New Zealand","Burgenland","$6,531"
"Stacey Contreras","1-274-724-2967","pellentesque.massa.lobortis@hotmail.couk","Turkey","Zamboanga Peninsula","$8,948"
"Kellie King","(931) 411-4843","lectus.nullam@yahoo.net","Singapore","South Australia","$7,946"
"Grady Whitehead","(331) 804-1182","arcu.vestibulum@hotmail.com","United Kingdom","Champagne-Ardenne","$5,654"
"Cain Larsen","1-512-816-1279","etiam@protonmail.com","France","Rheinland-Pfalz","$9,967"
"Hedda Mcleod","(213) 683-6367","arcu@protonmail.couk","Brazil","Limousin","$6,686"
"Barclay Daugherty","(541) 286-7145","aenean@yahoo.edu","Philippines","East Region","$7,913"
"Buffy Watkins","(203) 312-0672","auctor.non@outlook.net","India","Lower Austria","$8,061"
"Rosalyn Pierce","1-833-872-5186","eget.odio@google.org","Sweden","Mpumalanga","$8,238"
"Imani Landry","(468) 831-6202","fusce.mi@yahoo.ca","South Korea","Jalisco","$8,166"
"Adena Perez","1-682-521-4728","eros.nec@icloud.edu","United States","Tamaulipas","$6,233"
"Josephine Gonzalez","1-710-303-8871","dapibus@yahoo.net","Nigeria","Abruzzo","$9,620"
"Zorita Pruitt","1-528-370-6812","nulla.aliquet@aol.net","Australia","Saskatchewan","$9,707"
"Eagan Foley","(333) 773-9285","nonummy@google.net","Norway","Jeju","$9,351"
"Brandon Grimes","(623) 270-7862","quam.dignissim@google.couk","Russian Federation","South Island","$9,438"
"Samuel Raymond","1-490-688-5272","duis.a@outlook.edu","China","Huáběi","$6,216"
"Merritt Wise","(416) 344-3210","eros.nec.tellus@outlook.org","New Zealand","North Island","$8,678"
"Mona Velez","(327) 291-8854","euismod.mauris.eu@icloud.com","Poland","São Paulo","$6,525"
"Randall Olsen","1-788-846-7788","non.hendrerit@outlook.edu","Indonesia","Mpumalanga","$8,010"
"Liberty Mckee","1-886-353-6667","integer.vulputate@google.couk","Vietnam","Innlandet","$5,634"
"Alea Cardenas","(887) 112-7434","ornare.egestas@aol.net","Colombia","Nova Scotia","$7,387"
"Briar Green","(337) 796-9457","netus.et@icloud.net","New Zealand","Kaduna","$5,999"
"McKenzie Jacobs","1-836-478-7157","risus.in.mi@outlook.couk","Philippines","North-East Region","$8,897"
"Kyra Harrison","(472) 156-7093","class.aptent@google.couk","Turkey","Delta","$7,281"
"Signe Heath","(891) 759-8394","ridiculus.mus@aol.org","Sweden","Noord Holland","$7,885"
"Azalia Steele","(412) 843-3784","lectus@icloud.org","Singapore","Metropolitana de Santiago","$9,589"
"Buffy Ferrell","1-564-775-2373","lectus.sit@hotmail.couk","Poland","Zhōngnán","$8,516"
"Christian Leon","1-661-416-3892","neque.nullam@aol.couk","Canada","Trentino-Alto Adige","$6,476"
"Beau Huffman","1-863-732-9965","sed.tortor@icloud.ca","Belgium","Ceará","$8,655"
"Cynthia Green","(902) 310-0151","ipsum.ac@outlook.edu","South Korea","Lower Austria","$5,521"
"Tyler Kaufman","1-818-464-6795","pede@outlook.edu","India","Maharastra","$9,899"
"Daphne Henderson","1-707-993-4758","laoreet.lectus.quis@hotmail.edu","Italy","Agder","$5,666"
"Patricia Randolph","(783) 638-8724","enim@aol.org","Mexico","Styria","$8,278"
"Zelenia Bartlett","(321) 478-4124","odio.aliquam@outlook.com","United Kingdom","North Island","$6,023"
"Quail Levine","(827) 545-8381","euismod.in@hotmail.org","Italy","Oost-Vlaanderen","$5,131"
"Venus Sandoval","1-412-399-6385","tempus.scelerisque@icloud.couk","Colombia","Lower Austria","$7,971"
"Castor Rose","1-822-285-7654","non.luctus@yahoo.edu","Vietnam","Anglesey","$8,509"
"Ethan Benjamin","(785) 635-6234","eget.dictum@hotmail.ca","United States","Burgenland","$6,461"
"Kylan Woodard","(452) 833-4542","enim.consequat.purus@hotmail.couk","Chile","Atacama","$8,984"
"Roary Beach","1-488-653-2520","adipiscing.ligula.aenean@protonmail.net","Italy","Manitoba","$8,143"
"Chancellor Vargas","(134) 558-7364","sem@protonmail.com","Turkey","Quảng Bình","$5,985"
"Reagan Flowers","(863) 328-2014","hymenaeos@yahoo.couk","Netherlands","Georgia","$8,563"
"Martina Cortez","(529) 632-2904","enim.condimentum.eget@aol.ca","Philippines","Salzburg","$9,538"
"Stone Morton","1-255-561-7557","sed.auctor.odio@aol.ca","Poland","Huádōng","$7,394"
"Oliver Whitaker","(663) 426-4447","lorem.ipsum@protonmail.org","Singapore","Jeju","$6,584"
"Damian Perkins","(275) 776-7334","egestas.blandit@google.edu","China","South Island","$5,973"
"Perry Hanson","(523) 152-5146","tempor.lorem@protonmail.couk","South Africa","Samara Oblast","$7,423"
"Ahmed Callahan","(135) 492-2132","sapien.aenean@yahoo.net","Vietnam","Delaware","$6,460"
"Jana Allen","1-513-784-7611","tincidunt@icloud.org","Pakistan","North Island","$7,177"
"Laith Spencer","1-517-938-1459","fermentum.arcu@outlook.couk","Canada","Leinster","$9,661"
"Melvin Grimes","(286) 424-1361","ornare@google.com","Philippines","Radnorshire","$8,227"
"Lavinia Parsons","1-826-431-8621","nisi.dictum.augue@yahoo.ca","Italy","Pernambuco","$5,659"
"Ifeoma Guzman","1-488-741-2241","eu.enim.etiam@aol.com","Turkey","Dōngběi","$9,442"
"Callie Vargas","1-732-570-8307","ante.iaculis@protonmail.edu","Nigeria","Tasmania","$6,240"
"Shad Kim","1-317-435-6885","malesuada.fames@google.couk","United Kingdom","Idaho","$5,810"
"Aquila Valentine","1-729-157-9859","nunc.est.mollis@google.org","Turkey","Osun","$7,180"
"Kitra Berry","(516) 873-6798","posuere.enim@protonmail.com","South Africa","Veneto","$6,945"
"Kermit Yates","(158) 468-4624","blandit.at.nisi@hotmail.net","South Korea","Azad Kashmir","$5,031"
"Kareem Pena","(464) 630-0254","arcu.sed@outlook.com","South Korea","Umbria","$8,555"
"Kelly Rasmussen","1-691-926-8091","donec.consectetuer@hotmail.edu","India","Jeju","$6,634"
"Lars Schroeder","(523) 796-0705","mauris.ut@aol.couk","Ukraine","Connacht","$9,743"
"Signe Whitney","(463) 267-4724","per.inceptos@icloud.com","Belgium","South Island","$7,895"
"Yoshio Burton","1-792-884-5182","magna@aol.ca","Italy","Warmińsko-mazurskie","$5,638"
"Samson Perez","1-807-658-5858","commodo.ipsum@aol.ca","Poland","Oregon","$5,474"
"Damian Kerr","(511) 714-4068","vitae.velit@hotmail.couk","France","Idaho","$7,641"
"Ulysses Mcdowell","1-838-186-7283","dictum.phasellus.in@outlook.org","United States","Lima","$6,530"
"Oscar Acosta","1-884-554-8249","velit.quisque@aol.com","Brazil","Salzburg","$9,325"
"Blythe Craig","1-476-646-2439","fusce.mi@yahoo.couk","Ukraine","North Island","$9,762"
"Paula Holder","1-875-783-6025","tellus.sem@hotmail.couk","Canada","Atacama","$7,717"
"Hashim Hartman","(977) 448-3714","vitae.semper@yahoo.com","Sweden","Lima","$6,629"
"Simon Espinoza","1-187-581-9471","tellus.aenean.egestas@aol.net","Indonesia","East Region","$6,332"
"Brenden Mueller","(453) 625-8315","a.auctor.non@protonmail.net","Austria","Free State","$8,366"
"Forrest Welch","1-434-732-9545","eget@yahoo.org","Costa Rica","Ryazan Oblast","$9,146"
"Jessica Hobbs","(738) 767-0471","purus.in@outlook.couk","Costa Rica","South Australia","$5,133"
"Haviva Montgomery","(347) 521-4536","eleifend.nunc.risus@outlook.com","United Kingdom","Azad Kashmir","$7,730"
"Carol Wilder","1-189-276-7167","id.nunc.interdum@yahoo.edu","Peru","Andalucía","$8,908"
"Kessie Flynn","(267) 886-6001","convallis.ante.lectus@icloud.org","United Kingdom","Castilla - La Mancha","$6,671"
"Kristen Fields","(717) 724-0761","egestas.aliquam@protonmail.edu","Philippines","Piura","$5,402"
"Gray White","(292) 512-6032","placerat.eget@google.couk","Indonesia","Provence-Alpes-Côte d'Azur","$8,655"
"Castor Lopez","(638) 216-8018","ipsum.primis@hotmail.ca","Norway","Banten","$6,658"
"Tamekah Adams","1-555-925-0177","neque.et@protonmail.edu","United Kingdom","Vladimir Oblast","$5,802"
"Jasper Joseph","(523) 626-6767","felis.donec@icloud.net","Ukraine","Central Region","$7,510"
"Donna Klein","(587) 418-4982","nullam@google.edu","Mexico","Kaliningrad Oblast","$5,205"
"Wanda Roach","(617) 298-8228","ullamcorper.duis.cursus@aol.ca","Costa Rica","Los Ríos","$6,429"
"Wanda Parks","1-574-651-9110","magnis@aol.net","Ireland","Tambov Oblast","$8,351"
"Rashad Christian","1-711-477-2346","eleifend.nec@yahoo.com","Austria","Michigan","$9,934"
"Thaddeus Hoover","1-478-895-9382","neque.et@protonmail.couk","Brazil","Sicilia","$6,270"
"Rajah Swanson","1-652-878-1869","praesent.luctus.curabitur@outlook.edu","Brazil","Brussels Hoofdstedelijk Gewest","$8,661"
"Shelly Sullivan","(552) 770-4674","fermentum.metus.aenean@yahoo.edu","France","Victoria","$6,393"
"Tyrone Harris","(851) 932-9368","tempor.diam.dictum@google.org","Belgium","Utrecht","$5,556"
"Guinevere Dejesus","(229) 311-7995","vel.vulputate.eu@yahoo.org","Canada","Orenburg Oblast","$9,862"
"Joshua Workman","1-327-194-5891","sed.leo@outlook.net","Italy","East Region","$5,832"
"Lester Francis","1-328-958-6672","vivamus.nibh.dolor@aol.org","Colombia","Colorado","$5,445"
"Martin Hodge","1-464-516-8807","sed.nulla@aol.org","Spain","Chhattisgarh","$6,804"
"Jin Weber","1-638-747-5880","orci@yahoo.com","Vietnam","North Island","$7,071"
"Brock Hyde","1-885-217-9821","est.nunc@icloud.ca","Philippines","Östergötlands län","$5,104"
"Lacy Valencia","(553) 578-8883","nulla.in@yahoo.org","Turkey","Salzburg","$8,283"
"Fitzgerald Duke","(859) 558-6681","hendrerit.a.arcu@protonmail.couk","Chile","Sindh","$8,546"
"Ira Nunez","(922) 767-7024","integer.sem@icloud.org","France","Berkshire","$9,367"
"Eugenia Fox","(313) 797-2146","phasellus.libero@protonmail.ca","United Kingdom","Saskatchewan","$9,071"
"Ariel Andrews","(764) 827-1877","tristique.ac@protonmail.org","Nigeria","Munster","$5,237"
"Leo Velez","1-378-806-3453","duis@icloud.couk","Netherlands","North Chungcheong","$5,907"
"Murphy York","1-850-412-1164","nullam.lobortis@outlook.org","Australia","Caldas","$8,600"
"Hayden Jenkins","(560) 390-5682","tincidunt.adipiscing.mauris@aol.couk","South Korea","Imo","$5,549"
"Isabelle Compton","1-717-362-4784","sed@aol.com","Chile","Queensland","$8,917"
"Maris Day","1-422-484-7840","nostra.per.inceptos@hotmail.ca","India","Bắc Ninh","$5,451"
"Francis Gutierrez","1-886-473-4112","fringilla.cursus@outlook.ca","Brazil","Cusco","$8,218"
"Deborah Maldonado","1-524-795-8024","ipsum.non.arcu@icloud.ca","Norway","East Region","$5,937"
"Rhonda Mercado","1-739-267-2779","eros.non@outlook.net","Australia","Thái Bình","$6,532"
"Felix Vaughan","(926) 567-6467","sed@icloud.org","Brazil","Molise","$6,692"
"Deacon Waters","(734) 633-1118","lacinia.at.iaculis@hotmail.couk","Ukraine","Picardie","$7,801"
"Catherine Cochran","(587) 914-0796","donec.felis@icloud.edu","Canada","Gilgit Baltistan","$5,614"
"Steven Pacheco","1-471-985-7391","eget.varius@outlook.com","South Africa","Upper Austria","$8,836"
"Garrison Zamora","1-153-587-5184","purus@icloud.couk","France","Veracruz","$7,651"
"Lars Sandoval","(221) 456-6514","natoque.penatibus@google.ca","Costa Rica","Hưng Yên","$8,468"
"Thor Dixon","(782) 668-3965","etiam.imperdiet.dictum@hotmail.org","Belgium","Vorarlberg","$6,674"
"Thomas Oneil","(788) 213-7325","sed@protonmail.net","United States","Brussels Hoofdstedelijk Gewest","$9,656"
"Carolyn Rojas","(524) 664-5404","eleifend.non@aol.com","Brazil","South Island","$5,672"
"Harding Dillon","1-460-463-4574","nunc.sed@hotmail.ca","Colombia","North Jeolla","$5,795"
"Keaton Coleman","(842) 389-9820","nec.imperdiet.nec@aol.org","Germany","Salzburg","$6,635"
"Seth Grimes","1-249-867-6684","dui.augue@icloud.org","Ireland","California","$9,021"
"Geraldine Delgado","1-546-480-6984","id.ante@protonmail.couk","Costa Rica","Rheinland-Pfalz","$7,670"
"Jakeem Tanner","(640) 553-2164","a.aliquet.vel@aol.ca","Norway","Pernambuco","$7,940"
"Barry Rollins","1-841-465-4215","a.feugiat.tellus@icloud.edu","France","Connacht","$9,706"
"Haley Rush","1-322-721-8280","amet.ultricies.sem@aol.org","United Kingdom","Trentino-Alto Adige","$7,653"
"Blossom Guerra","1-760-610-4131","tristique.neque@google.edu","Italy","North Island","$6,457"
"Gillian Gallagher","(484) 529-4546","dolor.nonummy@aol.net","Philippines","Provence-Alpes-Côte d'Azur","$7,079"
"Kyle Holt","(865) 254-0231","augue@aol.org","Poland","Mersin","$7,637"
"Lane Oneal","1-743-870-3758","libero.dui@icloud.org","Chile","Queensland","$5,137"
"Kyla Holman","1-625-473-5824","curabitur.dictum@google.ca","India","Navarra","$7,289"
"Anastasia Hodge","(222) 388-3877","aptent.taciti@aol.org","Russian Federation","Araucanía","$9,509"
"Zorita Alvarado","(715) 713-9661","pellentesque.sed@outlook.com","Russian Federation","Schleswig-Holstein","$7,443"
"Hedda Harris","1-569-961-1656","luctus@google.ca","South Africa","Niger","$8,078"
"Aspen Richard","(654) 325-5422","et.malesuada.fames@outlook.com","South Africa","Pondicherry","$6,260"
"Forrest Ryan","1-609-390-5305","ultricies.adipiscing.enim@aol.org","Ukraine","Utrecht","$7,607"
"Garrett Sheppard","1-973-217-4277","nunc.est.mollis@hotmail.edu","South Korea","Dōngběi","$5,306"
"Hanae Durham","1-224-560-5034","proin.velit@aol.edu","Pakistan","Central Region","$5,235"
"Reece Huff","1-345-603-2641","et.libero.proin@outlook.edu","Peru","Sonora","$9,124"
"Orlando Battle","1-597-932-8353","pellentesque.a@yahoo.net","Ireland","Sląskie","$6,194"
"Ingrid Jarvis","(132) 845-4815","donec.luctus@aol.edu","Nigeria","Principado de Asturias","$6,260"
"Madonna Sharp","(176) 805-2405","fusce@icloud.com","Australia","Nizhny Novgorod Oblast","$9,666"
"Fleur Simon","1-551-810-8599","molestie.dapibus@yahoo.edu","Russian Federation","Omsk Oblast","$7,787"
"Kimberly Wise","1-224-613-0072","ut.tincidunt@yahoo.couk","United States","Eastern Visayas","$6,286"
"Kaseem Randall","1-293-695-3746","elementum.lorem@outlook.net","Brazil","KwaZulu-Natal","$6,995"
"Briar Tate","(375) 538-5266","nunc.mauris.sapien@google.org","Germany","Balıkesir","$5,460"
"Kyra Stuart","(814) 168-1567","non.quam@google.couk","Singapore","Leinster","$9,519"
"Tarik Ferguson","1-496-116-6975","sed.dictum.proin@outlook.net","Italy","Zamboanga Peninsula","$6,573"
"Charde Hunter","1-209-712-5401","in@google.ca","Chile","Leinster","$9,413"
"Ila Christian","1-224-979-4168","odio.etiam@hotmail.net","Chile","Sucre","$7,788"
"Imani Kinney","(731) 897-5639","sapien.gravida@protonmail.net","New Zealand","Henegouwen","$6,805"
"Jeanette Patrick","(407) 945-3331","pede.nonummy@yahoo.edu","Chile","Cauca","$9,876"
"Tara Wilder","1-791-377-5082","dolor.vitae.dolor@aol.couk","Poland","Île-de-France","$8,601"
"Charles Larsen","(786) 639-0791","mauris.ipsum@outlook.com","Austria","Puntarenas","$6,278"
"Lynn Osborne","1-784-998-4503","luctus.felis.purus@icloud.edu","Peru","Principado de Asturias","$7,751"
"Dacey Mann","1-527-535-5555","ullamcorper.velit@hotmail.ca","Singapore","KwaZulu-Natal","$8,374"
"Zeus Snyder","1-937-871-7272","sit.amet@icloud.couk","Nigeria","North Island","$6,176"
"Alexandra Alvarez","1-398-626-3690","vel.venenatis@google.ca","Nigeria","Oaxaca","$6,323"
"Lynn Peterson","1-913-633-9448","laoreet@icloud.net","Netherlands","Toscana","$9,611"
"Amal Velasquez","(874) 718-2241","turpis.aliquam@outlook.com","Philippines","North West","$8,500"
"Preston Fleming","(400) 822-5887","in.tempus@outlook.ca","Brazil","South Island","$7,311"
"Natalie Casey","(949) 702-7696","ante@protonmail.couk","Canada","Zachodniopomorskie","$7,744"
"Nevada Willis","(418) 364-0579","tincidunt.neque@icloud.net","Costa Rica","Himachal Pradesh","$9,771"
"Macey O'donnell","(211) 766-9373","eu.augue@hotmail.net","Peru","Jharkhand","$9,801"
"Amir Thompson","(343) 766-5762","eu@outlook.couk","Austria","Oslo","$8,491"
"Deacon Gould","1-885-467-6302","imperdiet.non.vestibulum@aol.edu","Canada","Waals-Brabant","$8,578"
"Carl Kidd","(446) 783-8507","ridiculus@icloud.net","France","Zeeland","$5,444"
"Daniel Dotson","1-946-850-5728","augue@outlook.net","South Korea","South Island","$8,494"
"Unity Ingram","(386) 112-5902","per.conubia@protonmail.org","India","Massachusetts","$5,407"
"Vance Spencer","1-522-696-5625","aliquet.sem.ut@outlook.couk","Costa Rica","Hertfordshire","$5,299"
"Hunter Sheppard","(829) 798-3434","neque.nullam@icloud.edu","Austria","Euskadi","$6,926"
"Levi Osborne","1-489-756-4562","mauris.erat@google.org","India","Utah","$5,687"
"Aileen Pruitt","(665) 243-9674","tellus.aenean@outlook.ca","United Kingdom","Nuevo León","$9,558"
"Linus Mcbride","(302) 455-4767","nunc@google.ca","Norway","Tasmania","$6,259"
"Suki Berry","1-628-775-4510","nulla.aliquet.proin@outlook.ca","Vietnam","Heredia","$6,856"
"Dora Mccall","(661) 212-6486","hymenaeos.mauris@icloud.couk","France","Tripura","$8,661"
"Scarlett Stafford","(962) 788-3483","elit.pretium.et@aol.couk","Costa Rica","Gävleborgs län","$5,758"
"Jena Malone","(765) 930-6650","nisi.cum.sociis@protonmail.net","South Africa","Lubelskie","$7,556"
"Hoyt Stout","1-523-317-2666","mollis@icloud.com","Belgium","Mpumalanga","$9,473"
"Kalia Stevenson","(261) 412-1887","tellus@outlook.edu","Turkey","Ulster","$6,622"
"Cole Flynn","1-117-305-5121","ipsum@google.edu","Poland","Carinthia","$8,305"
"Serina Baxter","(874) 906-7649","amet.risus.donec@google.com","Turkey","Western Cape","$5,623"
"Jakeem Davidson","1-837-777-8173","ut.ipsum@outlook.edu","Costa Rica","Central Region","$8,552"
"Shannon Hoover","(329) 417-3567","donec.vitae.erat@icloud.org","South Korea","South Island","$8,316"
"Priscilla Mcfarland","(864) 280-7404","proin@yahoo.edu","Nigeria","Central Region","$6,375"
"Sebastian Avila","1-795-313-1854","enim.mauris@yahoo.ca","Chile","Chiapas","$9,410"
"Cedric Mason","1-295-351-1117","tincidunt.aliquam@protonmail.com","Poland","Rheinland-Pfalz","$8,261"
"Kiara Gonzales","1-597-480-1113","at.velit@hotmail.couk","China","Jigawa","$7,980"
"Hop Cross","1-783-510-9135","commodo.tincidunt@protonmail.org","Colombia","Ternopil oblast","$8,563"
"Colorado Lee","1-413-695-1248","amet.faucibus@google.net","Norway","Kherson oblast","$9,339"
"Harding Hardy","1-638-564-1152","nisl.nulla@google.ca","Chile","Osun","$6,044"
"Cassidy Jacobs","1-778-235-2768","morbi.vehicula.pellentesque@hotmail.ca","Poland","Araucanía","$9,091"
"May Kemp","(978) 263-8766","odio@yahoo.com","Pakistan","Brandenburg","$5,469"
"Jeanette Clark","1-475-288-8416","montes.nascetur@protonmail.edu","Russian Federation","Murmansk Oblast","$9,236"
"Colt Fulton","(853) 289-6793","faucibus.leo@google.org","Philippines","Magallanes y Antártica Chilena","$8,677"
"Sydney Fisher","(303) 212-2503","libero.proin.mi@aol.edu","Turkey","West Kalimantan","$9,966"
"Macon Simpson","(667) 289-1346","porttitor.tellus@icloud.ca","Italy","Vestland","$9,538"
"Hedda Turner","(696) 721-3020","suspendisse.aliquet@icloud.net","Brazil","Rivers","$6,479"
"Petra Burch","(412) 109-2861","fusce.mollis@google.com","Poland","Alajuela","$8,533"
"Kirk Goodwin","(394) 563-3822","euismod.in.dolor@hotmail.net","China","Andhra Pradesh","$5,807"
"Hayes Henson","1-468-734-8532","et@outlook.edu","Chile","Paraíba","$9,971"
"Edan Riggs","(643) 777-4460","malesuada.vel.venenatis@outlook.couk","South Korea","Bà Rịa–Vũng Tàu","$5,121"
"Tyler Patel","(351) 970-0623","dignissim.tempor@hotmail.couk","Germany","Konya","$7,911"
"Vivian Tanner","(348) 915-5774","magnis.dis@aol.com","Indonesia","Los Lagos","$6,078"
"Ralph Farley","(732) 581-2359","ad.litora@yahoo.net","South Korea","Papua","$8,862"
"Kyle Simmons","(754) 874-9869","mattis.cras@yahoo.edu","Norway","Samsun","$6,772"
"Ahmed Benjamin","1-209-437-8650","dictum@google.couk","Colombia","Manitoba","$6,507"
"Raven Ortiz","(530) 372-6751","leo.morbi.neque@outlook.net","United States","Rio de Janeiro","$5,626"
"Oscar Emerson","1-831-642-9972","nisi.aenean@yahoo.ca","Nigeria","Phú Thọ","$6,177"
"Jocelyn Berg","1-388-224-8821","lorem.vehicula.et@hotmail.org","China","Gyeonggi","$5,020"
"Noelle Grant","(801) 347-9488","nascetur.ridiculus@google.couk","United Kingdom","Östergötlands län","$6,716"
"Paula Fox","1-497-337-2101","justo@aol.edu","South Africa","Overijssel","$5,115"
"Camilla Beard","(480) 876-0503","sed.eu.eros@yahoo.net","Vietnam","Sląskie","$6,103"
"Macey Pratt","1-774-712-8135","justo.nec@outlook.net","United Kingdom","Stockholms län","$9,683"
"Amal Perry","(212) 811-7817","ipsum.leo@icloud.edu","Colombia","Piura","$7,404"
"Clarke Short","1-859-735-7118","pellentesque.habitant.morbi@protonmail.ca","Philippines","Loreto","$6,593"
"Baxter Gilbert","1-386-432-6507","risus.donec.nibh@hotmail.ca","Russian Federation","Cusco","$8,674"
"Willow Morrison","(763) 871-3675","nunc.sed@outlook.edu","Norway","Saskatchewan","$6,025"
"Geraldine Lamb","1-567-265-7141","vivamus.non@protonmail.net","Brazil","Jönköpings län","$5,921"
"Mariko Dixon","1-440-486-6613","interdum@google.org","Philippines","Toscana","$8,188"
"Lucas Vaughan","1-508-714-8124","leo@hotmail.org","Austria","Queensland","$7,135"
"Abigail Hammond","(593) 636-8758","lorem@aol.ca","Brazil","Khyber Pakhtoonkhwa","$9,784"
"Evelyn Duke","(565) 282-1742","dui.cras.pellentesque@aol.ca","Spain","Hatay","$7,321"
"Rhonda Dorsey","1-608-261-7220","urna@google.net","Vietnam","Gauteng","$7,788"
"Dillon Anthony","(813) 592-4193","praesent.eu.dui@google.org","Indonesia","Leinster","$9,613"
"Hu Valenzuela","1-575-878-8416","nunc.mauris@yahoo.edu","China","Benue","$9,000"
"Lilah Bright","1-975-498-3239","consectetuer.adipiscing@google.edu","Italy","Australian Capital Territory","$6,113"
"Kylynn Griffin","(875) 701-9376","nibh@outlook.edu","New Zealand","Khyber Pakhtoonkhwa","$8,527"
"Cody Bell","(316) 765-1595","in.nec@yahoo.org","India","Sindh","$7,922"
"Clio Barr","(924) 398-4043","et.arcu.imperdiet@yahoo.net","Russian Federation","Gujarat","$8,987"
"Ishmael Pitts","(731) 355-1635","lacinia.orci.consectetuer@yahoo.edu","Colombia","Munster","$7,197"
"Hadassah Abbott","1-985-557-5474","pharetra.nam@aol.ca","Germany","Trøndelag","$9,373"
"Kai Lott","(621) 725-5668","pellentesque@yahoo.org","Canada","Sucre","$6,039"
"Byron Jacobs","(365) 753-7051","conubia.nostra@aol.net","Peru","Western Australia","$7,454"
"Simon Flores","(238) 768-6898","vel.quam.dignissim@aol.edu","Ireland","Cartago","$8,030"
"Sigourney Evans","(554) 642-8714","viverra@protonmail.edu","Russian Federation","North Island","$7,151"
"MacKenzie Silva","(373) 728-6975","non@hotmail.ca","South Africa","Limón","$5,325"
"Kaseem Bishop","1-427-275-1682","sed.eget.lacus@google.ca","South Africa","Córdoba","$9,265"
"Salvador Manning","(836) 656-7341","faucibus@aol.ca","Austria","Hessen","$8,614"
"Raja Duke","(313) 294-9403","ac.facilisis@outlook.ca","France","Oaxaca","$7,531"
"Kato Golden","(943) 527-4104","nec@aol.org","Mexico","Vĩnh Long","$8,347"
"Harlan Parks","(325) 259-4456","ante.iaculis.nec@protonmail.org","Austria","Newfoundland and Labrador","$9,461"
"Warren Wilkins","(927) 652-4315","aliquet.magna@outlook.ca","Indonesia","Kyiv oblast","$9,163"
"Hadassah Reese","(560) 730-1162","curabitur.vel@protonmail.net","Canada","Munster","$5,196"
"Hope Hamilton","(657) 371-5458","sed.eu@hotmail.org","Sweden","Møre og Romsdal","$7,519"
"Colin Blevins","1-346-384-9698","et.arcu.imperdiet@icloud.edu","Italy","Ulster","$6,750"
"Erasmus Lawson","(551) 779-1743","et.ultrices@icloud.edu","Mexico","Bicol Region","$9,193"
"Adrian Contreras","1-714-681-1766","lorem.donec@outlook.edu","Italy","Northern Cape","$6,000"
"Lewis Stark","(846) 477-8338","sed.auctor@outlook.com","Canada","Odisha","$5,762"
"Melodie Maynard","1-345-674-2861","ut@google.edu","Norway","Møre og Romsdal","$8,509"
"Fletcher Carney","(851) 201-8313","et.magnis@yahoo.ca","Turkey","Loreto","$7,443"
"Xaviera Forbes","1-912-550-2642","nulla.integer@icloud.ca","Pakistan","Rostov Oblast","$9,233"
"Brandon Lindsay","(493) 195-1711","lorem.eu.metus@hotmail.com","Costa Rica","Chernihiv oblast","$7,498"
"Adrian Stark","(563) 681-1848","cras.sed.leo@icloud.net","Norway","Carinthia","$6,083"
"Ryder Sutton","(963) 127-6054","eget.laoreet@google.org","Netherlands","Coahuila","$8,986"
"Clayton Richmond","1-102-847-6236","rhoncus.id@icloud.net","Netherlands","Uttarakhand","$8,064"
"Amela Briggs","(668) 249-4234","nibh.aliquam.ornare@outlook.couk","Poland","North-East Region","$5,122"
"Maite Pace","(544) 991-3313","sem.semper@yahoo.net","Italy","Baden Württemberg","$9,956"
"Maris Page","1-485-377-0588","cras@icloud.net","Peru","Niger","$6,033"
"Ria Guerra","(772) 588-8798","semper.tellus.id@hotmail.net","Indonesia","Limpopo","$5,014"
"Tasha Reilly","1-346-315-9232","hendrerit.neque.in@hotmail.couk","India","Extremadura","$6,087"
"Elliott Walker","1-509-874-6706","convallis.erat@icloud.couk","Italy","North Jeolla","$6,887"
"Abraham Lowe","1-413-165-3403","ullamcorper@outlook.edu","France","Hertfordshire","$9,026"
"Callum Brewer","(514) 123-4767","libero.proin@protonmail.org","Netherlands","Cambridgeshire","$5,770"
"Joelle Boone","1-522-742-5518","sit.amet@protonmail.com","United Kingdom","Zamboanga Peninsula","$8,719"
"Barrett Mcmillan","(237) 834-2814","donec@yahoo.com","Canada","Michigan","$7,927"
"Hanae Foley","(624) 523-1139","ipsum.curabitur.consequat@google.couk","Singapore","Podlaskie","$9,389"
"Kiayada Mccall","(545) 391-2211","gravida@google.org","South Korea","Odisha","$9,939"
"Victoria Dorsey","(162) 777-4929","vivamus.rhoncus@outlook.org","France","Vestland","$9,251"
"Nasim Britt","(757) 843-5579","vel.sapien@hotmail.net","Italy","Delta","$5,902"
"Brooke Lawrence","(840) 611-8711","id.sapien.cras@hotmail.net","Netherlands","Kayseri","$8,294"
"Germane Holmes","1-256-775-2815","nunc.est.mollis@aol.couk","United Kingdom","Galicia","$7,737"
"Cecilia Harvey","1-294-430-6584","risus.quis@hotmail.com","Russian Federation","West Papua","$9,006"
"Denise Hyde","(771) 748-2133","donec.luctus@hotmail.com","Sweden","Newfoundland and Labrador","$7,411"
"Lillian Romero","1-368-278-9397","risus@protonmail.com","Australia","Queensland","$8,741"
"Jolene Allen","1-176-285-7669","integer@yahoo.ca","South Korea","Goiás","$8,055"
"Lacota Stewart","1-236-736-3867","nec.imperdiet@hotmail.org","United States","Australian Capital Territory","$8,837"
"Erasmus Knapp","(819) 571-1111","rutrum.lorem@icloud.net","China","Dalarnas län","$8,808"
"Cassidy Newman","(368) 832-4421","risus.a@icloud.couk","Philippines","Munster","$7,251"
"Walker Mcfadden","(567) 368-6326","risus@hotmail.net","France","Bình Dương","$7,641"
"Nicholas Meyers","1-231-608-0305","egestas@icloud.com","New Zealand","Lubuskie","$5,432"
"Adria Kelly","(611) 336-1425","nulla.ante.iaculis@icloud.net","Sweden","Kujawsko-pomorskie","$6,982"
"Yen Chavez","(249) 467-0469","et.magnis@outlook.ca","Norway","Donetsk oblast","$9,319"
"Zorita Pace","1-762-452-4613","fusce@google.com","Germany","Puglia","$5,204"
"Hoyt Doyle","(258) 552-7107","sed@protonmail.edu","Italy","Quảng Ngãi","$5,405"
"Aidan Patrick","1-903-905-0227","sit@yahoo.ca","Colombia","North Maluku","$6,908"
"Zelda Baird","(405) 913-3835","risus.quis@icloud.com","Australia","Friesland","$8,942"
"Brody Huber","(894) 312-8608","accumsan@hotmail.edu","Spain","Baja California","$9,750"
"Howard Banks","(631) 358-7781","primis.in.faucibus@hotmail.com","Canada","Kaluga Oblast","$6,899"
"Dora Good","1-961-298-1654","dictum.eu.placerat@protonmail.couk","United States","São Paulo","$7,193"
"Xaviera Harrington","(695) 288-0617","mauris.suspendisse.aliquet@icloud.ca","Austria","Nairnshire","$9,762"
"Brock Anthony","(874) 447-4511","lectus.nullam@icloud.edu","South Africa","Møre og Romsdal","$8,917"
"Kyle Floyd","1-481-764-1535","diam.eu@outlook.couk","Pakistan","Champagne-Ardenne","$8,133"
"Jonas Ferrell","(292) 336-7208","turpis.nulla.aliquet@protonmail.couk","Germany","Mizoram","$8,501"
"Cameron Molina","(503) 256-6556","eget.dictum@hotmail.com","Brazil","Junín","$6,762"
"Basil Rosa","(291) 466-0441","ipsum.phasellus@hotmail.edu","Canada","Warwickshire","$9,596"
"Paki Burke","(205) 930-2341","quis.lectus@outlook.ca","Sweden","Kostroma Oblast","$8,794"
"Gavin Finch","(668) 241-1245","pellentesque.ut.ipsum@google.net","Peru","Aisén","$5,600"
"Nevada Buckner","(322) 974-7517","elit@outlook.ca","Indonesia","Ankara","$6,360"
"Daryl Dean","(233) 485-9412","elit.pede@outlook.ca","New Zealand","Bryansk Oblast","$6,741"
"Kylie Bird","1-222-586-6143","non.egestas@outlook.ca","Singapore","Quảng Ninh","$8,373"
"Ima Hogan","(622) 618-6331","molestie.in.tempus@google.org","Philippines","Troms og Finnmark","$8,646"
"Harlan Guerra","(893) 756-3137","ultricies.sem@icloud.com","Singapore","Victoria","$8,539"
"Kasper Melton","1-581-387-2847","etiam.bibendum.fermentum@aol.edu","Austria","Loreto","$6,013"
"Erica Nelson","1-347-584-4720","sem.ut@google.edu","Ukraine","Putumayo","$5,613"
"Colorado Patton","1-135-633-0656","dui.suspendisse@outlook.couk","China","Ancash","$7,989"
"Camilla Holt","(764) 746-8985","elit.aliquam@google.org","South Korea","Euskadi","$9,960"
"Mercedes Wilkerson","(497) 447-3761","augue.scelerisque@aol.org","Peru","Aragón","$6,976"
"Summer Lowery","(221) 724-1418","auctor@hotmail.couk","Colombia","North Jeolla","$5,595"
"Boris Grant","1-351-364-5654","quisque.ac@hotmail.ca","Singapore","Imo","$9,894"
"Brendan Suarez","(701) 693-2563","cursus.integer@aol.net","South Korea","Ohio","$6,519"
"Ethan Snider","1-211-517-8613","cras@hotmail.com","Philippines","Victoria","$6,303"
"Norman Mays","1-402-125-4797","id.ante.nunc@google.edu","Peru","Rio de Janeiro","$9,369"
"Fritz Hendrix","1-245-148-4754","placerat.eget@aol.couk","Italy","Västra Götalands län","$8,960"
"Desiree Bird","1-566-419-4748","vitae.aliquam@yahoo.org","France","Thái Nguyên","$5,227"
"Rachel Mcneil","(334) 962-3424","feugiat.non.lobortis@aol.ca","Chile","Aceh","$6,938"
"Akeem Owen","1-612-878-1587","pede.nec.ante@protonmail.org","Netherlands","La Libertad","$8,811"
"Astra Casey","1-645-283-3868","sem.consequat@aol.edu","Turkey","Rio de Janeiro","$8,996"
"Nolan Huffman","1-832-452-4885","feugiat.lorem@google.ca","Australia","Provence-Alpes-Côte d'Azur","$6,297"
"Nehru Mckay","1-578-868-9955","id.mollis@aol.com","Colombia","Maule","$5,192"
"Yetta Oneil","1-115-377-8467","gravida.nunc@hotmail.com","Costa Rica","Aydın","$5,277"
"Ivy Hays","1-531-666-2217","risus@protonmail.net","Ukraine","Flevoland","$6,370"
"Garth Shelton","(798) 771-7046","ullamcorper.duis.at@icloud.org","Belgium","Inverness-shire","$7,337"
"Brian Holmes","(756) 852-1173","consectetuer.adipiscing.elit@google.edu","New Zealand","Hidalgo","$8,812"
"Uriah Carey","(426) 652-9565","ornare.egestas.ligula@yahoo.edu","Spain","Nordland","$7,354"
"Donovan Hurst","(871) 927-8397","cras@protonmail.couk","Indonesia","North Chungcheong","$7,516"
"Lillith Santiago","1-517-154-1453","nulla.in@aol.net","Russian Federation","Donetsk oblast","$7,618"
"Idona Marquez","(674) 811-5777","praesent.eu@outlook.org","Belgium","Yukon","$8,738"
"Ian Ewing","1-413-971-4656","malesuada.fames@aol.com","Austria","Ogun","$7,409"
"Chancellor Henson","1-656-930-3067","non.magna@yahoo.couk","Sweden","Galicia","$5,233"
"Omar Hayden","(735) 967-1472","nisi.dictum@icloud.ca","Australia","Dnipropetrovsk oblast","$8,737"
"Celeste Coleman","1-247-165-9682","augue.id.ante@icloud.org","Australia","Drenthe","$5,565"
"Rinah Kelley","1-417-534-9442","nascetur.ridiculus.mus@aol.com","Ireland","Mizoram","$6,339"
"Emerald Alvarez","1-544-867-1874","mi@aol.net","South Africa","North West","$9,976"
"Amelia Knox","1-743-476-1505","sed.dictum.eleifend@hotmail.com","Poland","Zhōngnán","$9,094"
"Hayley Gentry","1-466-951-9852","in.at@aol.couk","Sweden","Chiapas","$5,874"
"Mira Benson","(542) 244-2934","nisi.nibh@protonmail.couk","Vietnam","Kaluga Oblast","$6,359"
"Carly Bridges","(195) 463-3495","pellentesque.habitant@outlook.org","Mexico","Đà Nẵng","$9,734"
"Reuben Conley","1-522-382-4732","justo.praesent.luctus@protonmail.ca","Netherlands","North Jeolla","$8,104"
"Elaine England","(361) 531-0246","tristique.pharetra@aol.net","Colombia","Central Visayas","$6,899"
"Dexter Holt","(211) 311-8227","maecenas@protonmail.com","Norway","La Libertad","$9,068"
"Chava Burnett","(280) 342-2056","mauris@aol.couk","Philippines","Soccsksargen","$6,020"
"Jolene Hutchinson","1-616-558-4910","sed.consequat@aol.edu","Pakistan","Northern Mindanao","$8,044"
"Kennedy Solis","1-977-893-1653","hendrerit.id@outlook.couk","United Kingdom","Rivers","$5,410"
"Castor Bowen","(778) 572-8484","elementum.purus@outlook.net","France","Paraíba","$7,456"
"Kathleen Fleming","(437) 186-6328","vulputate.lacus.cras@outlook.couk","Brazil","Cherkasy oblast","$7,510"
"Walter Gaines","(293) 649-6116","tellus.phasellus@protonmail.com","United States","Distrito Capital","$9,199"
"Jackson Austin","1-386-258-3776","quis.diam@hotmail.edu","Indonesia","Vichada","$8,050"
"Ayanna Vance","(505) 935-4141","velit.eu@yahoo.org","Mexico","Oryol Oblast","$6,557"
"Ethan Mcconnell","1-453-613-2826","tortor.nunc.commodo@outlook.org","Brazil","North Island","$6,116"
"Hayes Bernard","1-401-760-8148","commodo@google.couk","New Zealand","North Maluku","$9,309"
"Avram Goodwin","(690) 686-7690","purus@google.couk","Turkey","Nova Scotia","$9,588"
"Kelly Walker","1-717-354-6644","nulla.eu.neque@aol.couk","Sweden","Atacama","$8,938"
"Petra Blair","(512) 600-6767","sociosqu.ad@hotmail.net","Philippines","Odessa oblast","$8,876"
"Joy Oneil","(573) 772-7937","nunc.ut@aol.net","Philippines","Anambra","$7,007"
"Kyla Aguirre","(213) 247-8982","nec.cursus@google.couk","Vietnam","Central Luzon","$6,725"
"Nerea Weaver","(814) 114-4003","molestie.dapibus@google.com","Pakistan","Victoria","$6,813"
"Emery Mcneil","(334) 600-6769","lectus.rutrum@hotmail.ca","Vietnam","Trentino-Alto Adige","$9,490"
"Cade Gamble","1-473-892-3243","libero@google.couk","Italy","Hawaii","$9,839"
"Jescie Rowland","1-274-158-6826","nec@outlook.net","Nigeria","Caldas","$5,795"
"Audrey Hayes","1-494-706-8691","sem.semper.erat@yahoo.ca","United Kingdom","North Island","$9,793"
"Dane Blake","(762) 948-5072","metus.facilisis.lorem@icloud.couk","South Korea","Clackmannanshire","$8,880"
"Joshua Jefferson","(326) 392-2503","suscipit.nonummy.fusce@hotmail.ca","Vietnam","Delaware","$9,879"
"Tucker Adams","1-594-752-2025","mauris@google.com","Poland","Khyber Pakhtoonkhwa","$5,520"
"Neville Whitley","(542) 867-5147","sapien.cursus@hotmail.couk","United Kingdom","Provence-Alpes-Côte d'Azur","$6,213"
"Wade Mcmillan","(272) 866-1813","vehicula.et@aol.couk","Austria","Liguria","$8,829"
"Portia Mullen","1-584-686-3505","dapibus.gravida@outlook.net","United States","Lviv oblast","$6,828"
"Dolan Church","(782) 533-1875","placerat@protonmail.ca","South Africa","Free State","$8,041"
"Rhona Kidd","(211) 773-1557","nisi.aenean@icloud.edu","Spain","Ogun","$7,990"
"Justine Rush","1-964-289-3395","nonummy.ut@icloud.org","Nigeria","Oost-Vlaanderen","$6,251"
"Jason Taylor","(211) 122-0576","accumsan.convallis.ante@protonmail.net","Italy","North Island","$8,089"
"Jason Sheppard","(816) 227-3619","pharetra@hotmail.ca","Norway","Haute-Normandie","$5,668"
